#aV2024  1  5  0  0  0.00000000     288 DD+AD WGS84 FIT  NGA
## 2295 432000.00000000   300.00000000 60314 0.0000000000000
+   32     1  2  3  4  5  6  7  8  9 10 11 12 13 14 15 16 17
+         18 19 20 21 22 23 24 25 26 27 28 29 30 31 32  0  0
+          0  0  0  0  0  0  0  0  0  0  0  0  0  0  0  0  0
+          0  0  0  0  0  0  0  0  0  0  0  0  0  0  0  0  0
+          0  0  0  0  0  0  0  0  0  0  0  0  0  0  0  0  0
++         2  2  2  2  2  2  2  2  2  2  2  2  2  2  2  2  2
++         2  2  2  2  2  2  2  2  2  2  2  2  2  2  2  0  0
++         0  0  0  0  0  0  0  0  0  0  0  0  0  0  0  0  0
++         0  0  0  0  0  0  0  0  0  0  0  0  0  0  0  0  0
++         0  0  0  0  0  0  0  0  0  0  0  0  0  0  0  0  0
%c cc cc ccc ccc cccc cccc cccc cccc ccccc ccccc ccccc ccccc
%c cc cc ccc ccc cccc cccc cccc cccc ccccc ccccc ccccc ccccc
%f  0.0000000  0.000000000  0.00000000000  0.000000000000000
%f  0.0000000  0.000000000  0.00000000000  0.000000000000000
%i    0    0    0    0      0      0      0      0         0
%i    0    0    0    0      0      0      0      0         0
/*      NGA, ST. LOUIS,MO.                                  
/*   EPHEMERIS COMPUTED FROM 2 DAYS OF DATA                 
/*   EPOCHA v8 SMOOTHER                                     
/*   G2139 IERS2010 SATIGS SATAPC                           
*  2024  1  5 13 35  0.00000000
P  1 -18172.927622  -7284.861168  17765.155769    165.335782                    
V  1 -11230.298009 -20168.101835 -19051.407042      0.009055                    
P  2 -20384.259188 -11881.863025  12930.582675   -505.333867                    
V  2  -8022.306302 -13399.669622 -25751.318932      0.055375                    
P  3 -15902.392825     95.060582  21111.477502    105.253227                    
V  3  11840.359559 -24382.293930   9078.224970      0.264310                    
P  4 -26429.440931  -1607.425493   2873.834234    258.237214                    
V  4   3583.229120  -2630.809230  31466.395853      0.098571                    
P  5  10660.769157  11943.725126 -21354.527045   -156.817424                    
V  5 -11642.265662  24029.687696   7780.490859     -0.014283                    
P  6   3725.641774  22576.638746  13466.618713    455.066849                    
V  6 -10348.065710 -13543.518540  25801.536982     -0.127530                    
P  7 -12782.440815   8265.820343 -21281.060954    -29.802161                    
V  7 -15457.789730 -23607.151383   -353.105364     -0.094390                    
P  8 -23549.409553  -6072.187019 -11248.053233   -160.568059                    
V  8  13791.786897  -3341.319475 -26863.898346     -0.019196                    
P  9 -23905.909037   7866.371936  -8671.537849     49.158164                    
V  9 -11041.609318  -1812.119606  29023.919394      0.120699                    
P 10  10313.456605 -24144.060888   2773.380481    -68.120842                    
V 10   3630.223334  -1845.769011 -32183.921904     -0.014954                    
P 11  11454.788462  23819.404708   2904.877401   -528.505733                    
V 11  -4073.564107  -1862.115498  31552.478079     -0.143579                    
P 12  16242.715034    928.222194  20697.763073   -464.792903                    
V 12 -13191.816411  23504.696235   9243.591318     -0.038691                    
P 13  15583.346614  13265.597023 -17250.869742    612.857787                    
V 13 -21438.747432   -572.078176 -19830.327736      0.037489                    
P 14 -13323.093454  22840.981590   -970.202294    290.441622                    
V 14  -2386.682991  -2754.011813 -31528.796788      0.103312                    
P 15  23788.859698   4129.908667 -11787.772211    114.144851                    
V 15 -13391.229737   5506.108735 -25980.417548      0.038583                    
P 16  -4842.735509 -17645.283983 -19411.734541   -390.262480                    
V 16  14063.704217 -19628.628147  15033.487695      0.075812                    
P 17 -13642.344696  12975.397564  19223.060069    720.571735                    
V 17 -23412.266096  -1332.992838 -15937.546755     -0.008402                    
P 18  11450.111673  -9726.320131 -21876.497264   -524.596561                    
V 18  14872.507995  23472.305583  -2827.626440     -0.094665                    
P 19  -3427.819573  14663.372903  21664.965517    422.348231                    
V 19 -27895.412480  -1992.583444  -3381.520737      0.052488                    
P 20   2987.929168  22746.013310 -13474.796051    393.057208                    
V 20  -7308.747295  15697.113713  24598.242009     -0.019011                    
P 21 -20283.694077 -15683.000535   9110.941257    139.370695                    
V 21  -5184.416776  -9387.520662 -28380.477715     -0.011917                    
P 22  -9297.660409  24095.934935   7253.882860     53.494866                    
V 22  -6528.393000   5999.630110 -29826.742458     -0.065949                    
P 23  16137.647103 -18596.887030  -9689.711661    129.465473                    
V 23  -3341.305216  12113.597310 -28937.408881      0.073148                    
P 24  20462.149756  13115.346690  10779.067734   -407.952426                    
V 24   6448.280942  12995.726839 -26619.896366     -0.074516                    
P 25  17907.373166 -11588.920237  15316.422648    484.171940                    
V 25  -6737.325554  19187.159191  22189.382271      0.013894                    
P 26    651.845878 -23751.810187 -11621.880706    203.099097                    
V 26   8826.588241 -12278.842681  26271.424679     -0.034221                    
P 27 -12555.616456 -13069.191888 -19824.715848     -0.919747                    
V 27  24365.566744  -2247.436784 -13719.373518     -0.040124                    
P 28  -1895.025854 -21565.424429  15365.381466    -89.830119                    
V 28  12787.286972  14927.422036  22487.435593     -0.109788                    
P 29  24981.318092  -4718.319548  -7911.194894   -609.076633                    
V 29   9880.967387   2424.852129  29831.450352      0.004455                    
P 30  -4763.220499  18084.041106 -18638.798264   -449.100458                    
V 30 -14607.313288 -19267.987912 -15128.870208      0.045380                    
P 31  -8345.181963 -23770.632484   7514.315848   -227.104964                    
V 31   7949.227752   6780.786351  29866.216137     -0.002136                    
P 32   9041.790084 -14733.359165  20298.023229   -602.665760                    
V 32  25429.696903   -387.586386 -11925.447289     -0.031060                    
EOF
